[{"OBJECT_NAME":"TIANPING 2A","OBJECT_ID":"2022-032A","EPOCH":"2026-03-09T22:58:37.953408","MEAN_MOTION":14.9690979,"ECCENTRICITY":0.00109299,"INCLINATION":97.5994,"RA_OF_ASC_NODE":109.5163,"ARG_OF_PERICENTER":146.1091,"MEAN_ANOMALY":214.0831,"EPHEMERIS_TYPE":0,"CLASSIFICATION_TYPE":"U","NORAD_CAT_ID":52153,"ELEMENT_SET_NO":999,"REV_AT_EPOCH":21499,"BSTAR":3.4221979e-5,"MEAN_MOTION_DOT":3.37e-6,"MEAN_MOTION_DDOT":0},{"OBJECT_NAME":"DELTA 1 DEB","OBJECT_ID":"1977-065S","EPOCH":"2026-03-09T16:40:10.462656","MEAN_MOTION":13.68459021,"ECCENTRICITY":0.06537371,"INCLINATION":29.0654,"RA_OF_ASC_NODE":224.4351,"ARG_OF_PERICENTER":207.575,"MEAN_ANOMALY":148.8633,"EPHEMERIS_TYPE":0,"CLASSIFICATION_TYPE":"U","NORAD_CAT_ID":10188,"ELEMENT_SET_NO":999,"REV_AT_EPOCH":37798,"BSTAR":0.0012153388,"MEAN_MOTION_DOT":5.074e-5,"MEAN_MOTION_DDOT":0}]
